GLOBALSTAR M001         
1 25162U 98008A   24238.36669142 -.00000041  00000+0  42735-3 0  9996
2 25162  52.0028 114.2227 0001952  10.4182 161.7065 12.38192518207170
GLOBALSTAR M004         
1 25163U 98008B   24238.52465110 -.00000049  00000+0  30255-3 0  9996
2 25163  51.9975 236.1320 0003005 357.1556 155.4627 12.63369384224410
GLOBALSTAR M002         
1 25164U 98008C   24237.78297490 -.00000074  00000+0  57283-4 0  9997
2 25164  51.9992 263.3885 0001233 322.5026  37.5708 11.61503288149626
GLOBALSTAR M003         
1 25165U 98008D   24238.23460007  .00000041  00000+0  13874-2 0  9994
2 25165  51.9910 268.1845 0008051  60.5789  14.3813 12.12030242197429
GLOBALSTAR M014         
1 25306U 98023A   24237.88747594 -.00000061  00000+0  30910-3 0  9991
2 25306  51.9814 192.5768 0000566 162.3162 231.4130 11.65470402156626
GLOBALSTAR M006         
1 25307U 98023B   24238.37964942 -.00000062  00000+0  28040-3 0  9997
2 25307  51.9901 232.7514 0003799 292.5232 211.1166 11.58165045182668
GLOBALSTAR M015         
1 25308U 98023C   24237.99588369 -.00000057  00000+0  37332-3 0  9998
2 25308  51.9849 318.6063 0012255 267.9476 263.4513 11.48849005160415
GLOBALSTAR M008         
1 25309U 98023D   24238.52628236 -.00000051  00000+0  35643-3 0  9994
2 25309  51.9998 335.2397 0001993 265.8545 208.2810 12.36047327201594
